ICEYE-X39               
1 60546U 24149CG  26196.16144929  .00002272  00000+0  18702-3 0  9994
2 60546  97.6789 272.8081 0006941  46.6165 313.5636 15.00072792104314
UMBRA-10                
1 60547U 24149CH  26196.20539677  .00008732  00000+0  42233-3 0  9991
2 60547  97.6982 283.9364 0001687 167.4838 192.6438 15.18849852104985
ICEYE-X33               
1 60548U 24149CJ  26196.16983678  .00002816  00000+0  22604-3 0  9998
2 60548  97.7366 275.1703 0001900  75.0570 285.0864 15.00884823104403
ICEYE-X40               
1 60549U 24149CK  26196.15704842  .00001435  00000+0  12621-3 0  9996
2 60549  97.6795 272.2031 0003997   6.4770 353.6503 14.98070105104261
SATELIOT_1              
1 60550U 24149CL  26196.21271820  .00001107  00000+0  98283-4 0  9995
2 60550  97.6732 271.6445 0005641 352.4627   7.6510 14.98162763104265
BRO-14                  
1 60551U 24149CM  26196.14995946  .00000914  00000+0  86103-4 0  9993
2 60551  97.6864 271.4249 0006734  18.0591 342.0868 14.96235870104171
SATELIOT_3              
1 60552U 24149CN  26196.18863319  .00000353  00000+0  34658-4 0  9991
2 60552  97.6818 272.4393 0005055   4.9579 355.1692 14.98163739104274
BRO-15                  
1 60553U 24149CP  26196.19952039  .00000223  00000+0  24857-4 0  9997
2 60553  97.6791 271.0493 0007783   4.4425 355.6864 14.96221528104192
UM5-RIBAT               
1 60554U 24149CQ  26196.13483994  .00001198  00000+0  97941-4 0  9997
2 60554  97.6606 273.5562 0000721 351.8805   8.2407 15.01217968104383
UM5-EOSAT               
1 60555U 24149CR  26196.15882254  .00001915  00000+0  15172-3 0  9994
2 60555  97.6776 274.5816 0009116  35.6763 324.5069 15.01728593104415
LASARSAT                
1 62391U 24247Q   26195.93235013  .00021592  00000+0  40881-3 0  9991
2 62391  44.9739 106.1046 0007354 164.5391 195.5725 15.48033197 87612
CROCUBE                 
1 62394U 24247T   26196.08738532  .00025934  00000+0  45370-3 0  9997
2 62394  44.9722 102.0802 0007544 171.5148 188.5872 15.50189566 87677
TEVEL2-4                
1 63213U 25052D   26196.14627864  .00010715  00000+0  31215-3 0  9999
2 63213  97.3870  92.5984 0003540  51.9364 308.2199 15.35565165 74407
TEVEL2-5                
1 63214U 25052E   26196.17004561  .00010329  00000+0  30278-3 0  9995
2 63214  97.3866  92.5619 0003594  53.2255 306.9318 15.35379345 74402
TEVEL2-6                
1 63215U 25052F   26196.50888836  .00011734  00000+0  34391-3 0  9999
2 63215  97.3871  92.8865 0003621  54.7007 305.4575 15.35351129 74451
TEVEL2-1                
1 63217U 25052H   26195.63531658  .00009885  00000+0  29557-3 0  9993
2 63217  97.3847  91.6018 0004319  61.6960 298.4718 15.34761887 74302
TEVEL2-3                
1 63218U 25052J   26196.21566252  .00010309  00000+0  30743-3 0  9999
2 63218  97.3848  92.2082 0003999  62.2511 297.9137 15.34836829 74391
TEVEL2-2                
1 63219U 25052K   26196.15703338  .00010122  00000+0  30238-3 0  9993
2 63219  97.3840  92.1268 0004324  60.5637 299.6037 15.34784029 74383
TEVEL2-9                
1 63237U 25052AD  26196.23653776  .00009297  00000+0  29627-3 0  9993
2 63237  97.3907  91.5192 0007670  57.1732 303.0248 15.32733619 74326
TEVEL2-7                
1 63238U 25052AE  26196.15243170  .00009043  00000+0  29113-3 0  9997
2 63238  97.3906  91.3390 0007756  56.8395 303.3590 15.32415280 74302
TEVEL2-8                
1 63239U 25052AF  26196.16095353  .00008758  00000+0  28216-3 0  9992
2 63239  97.3906  91.3237 0007797  57.8563 302.3435 15.32400496 74306
FORESAIL-1 PRIME        
1 66778U 25276DS  26196.19422958  .00002417  00000+0  11894-3 0  9999
2 66778  97.4193 268.9548 0002896  44.4716 315.6751 15.18938200 34655
